#aV2015  4  1  0  0  0.00000000     288 DD+AD WGS84 FIT  NGA
## 1838 259200.00000000   300.00000000 57113 0.0000000000000
+   31     1  2  3  4  5  6  7  8  9 10 11 12 13 14 15 16 17
+         18 19 20 21 22 23 24 25 27 28 29 30 31 32  0  0  0
+          0  0  0  0  0  0  0  0  0  0  0  0  0  0  0  0  0
+          0  0  0  0  0  0  0  0  0  0  0  0  0  0  0  0  0
+          0  0  0  0  0  0  0  0  0  0  0  0  0  0  0  0  0
++         2  2  2  2  2  2  2  2  2  2  2  2  2  2  2  2  2
++         2  2  2  2  2  2  2  2  2  2  2  2  2  2  0  0  0
++         0  0  0  0  0  0  0  0  0  0  0  0  0  0  0  0  0
++         0  0  0  0  0  0  0  0  0  0  0  0  0  0  0  0  0
++         0  0  0  0  0  0  0  0  0  0  0  0  0  0  0  0  0
%c cc cc ccc ccc cccc cccc cccc cccc ccccc ccccc ccccc ccccc
%c cc cc ccc ccc cccc cccc cccc cccc ccccc ccccc ccccc ccccc
%f  0.0000000  0.000000000  0.00000000000  0.000000000000000
%f  0.0000000  0.000000000  0.00000000000  0.000000000000000
%i    0    0    0    0      0      0      0      0         0
%i    0    0    0    0      0      0      0      0         0
/*      NGA, ST. LOUIS,MO.                                  
/*   EPHEMERIS COMPUTED FROM  1 DAYS OF DATA                
/*   EPOCHA SMOOTHER                                       
/* CCCCCCCCCCCCCCCCCCCCCCCCCCCCCCCCCCCCCCCCCCCCCCCCCCCCCCCCC
*  2015  4  1 11 15  0.00000000
P  1 -11200.728006  21609.369804 -10459.865227     -7.298416                    
V  1 -11178.685255   7599.611010  27975.334884      0.004495                    
P  2  20977.281464 -12549.224918  -9437.623109    557.088083                    
V  2  -5996.873047  11720.779902 -28317.932915      0.023214                    
P  3  -3758.508959  14760.643430 -21749.620191    279.589956                    
V  3 -26775.422245  -6868.121714    -75.228222      0.152311                    
P  4 -17277.437470  19931.640617  -1707.041184    -10.247723                    
V  4  -3930.469075  -1239.992837  31350.833981     -0.009449                    
P  5  21933.290008  -5032.633632  14198.310968   -259.432814                    
V  5  16965.563479   6668.948042 -23580.079453      0.048882                    
P  6  17791.240227   1419.681740 -19667.233226    124.189682                    
V  6 -16593.588181  18700.864151 -13670.843357      0.101731                    
P  7   1160.319521  17697.088236  19751.455029    452.093473                    
V  7 -18793.304704  16464.325950 -14069.963764      0.028341                    
P  8 -22207.478650   8055.693225 -11273.366648     19.087180                    
V  8  10426.518993 -10707.020615 -28292.751176      0.004433                    
P  9   7150.699096  25570.900489   -100.445758   -127.141922                    
V  9  -2855.645974    686.252509 -31694.919824     -0.089262                    
P 10  24673.327597   9727.481764  -4164.582830   -169.285029                    
V 10  -5371.462580   1621.880312 -30475.341191     -0.013474                    
P 11 -10159.460665  24444.815934  -1375.149145   -568.324033                    
V 11  -5064.584308  -1060.510176  30185.411914     -0.026006                    
P 12   7177.944925 -12979.951066 -22105.259462    281.261813                    
V 12  26475.257326   8447.922095   3868.394281      0.030704                    
P 13  13204.023648  -8635.255594  21236.786717   -101.774946                    
V 13   4904.574907  26813.830723   7680.226006     -0.034188                    
P 14 -14439.876800 -15042.421128 -16302.253811     74.155158                    
V 14  -2400.467918 -21004.318552  21055.547219     -0.027954                    
P 15   6224.587610 -19775.184716  16333.036487   -241.028717                    
V 15   9042.308408  19256.110364  20076.305216     -0.021882                    
P 16 -22228.225987   2734.900646  14506.375723   -142.795362                    
V 16 -17053.261315  -6831.397773 -24357.359709      0.035390                    
P 17  14274.560539  16610.604086 -14879.864254   -164.072494                    
V 17   2629.724617  19209.605423  23300.483982     -0.019884                    
P 18 -16175.065309 -15468.188870  15018.095719    390.630607                    
V 18  18284.421293   1822.933332  21991.938581      0.028587                    
P 19  -9818.857693  16215.164488  18224.997356   -505.902814                    
V 19  -5860.515945 -22990.260434  17580.378403     -0.012628                    
P 20  26316.864825   3814.520895   1318.819340    305.743004                    
V 20   1173.732208   4057.257789 -30850.989039      0.039932                    
P 21  -6140.321154 -15996.755329  20913.208914   -432.209926                    
V 21  18160.684593 -17485.899097  -8706.484810     -0.037913                    
P 22 -24333.568636  -9750.405032   5048.699256    334.899308                    
V 22   6830.813014  -2167.558565  29912.306585      0.041978                    
P 23   -635.706531  24392.215772  -9804.857140    -98.975532                    
V 23  -6478.965485 -11513.195484 -28259.019926     -0.025356                    
P 24  13198.452840 -21677.489507  -7609.652545    -45.934061                    
V 24   8808.992570  -4954.916850  29670.902624     -0.006379                    
P 25  -7327.028150 -15876.777968 -20132.331585    -15.834785                    
V 25  24676.515046   5488.256375 -13206.744864     -0.033145                    
P 27 -14029.108906   5718.944915  21800.232841     61.919502                    
V 27  -7724.148921 -26596.014331   2109.579582      0.026623                    
P 28  21102.604999  13583.809580   9447.038154    429.937769                    
V 28 -10971.703665  -2036.598087  29293.074068      0.026705                    
P 29  -3576.228366 -26152.063873  -3174.547670    601.609757                    
V 29   3208.182228   3443.445578 -31638.469151      0.023865                    
P 30  10920.966864  10763.804231  21678.213003    -75.482763                    
V 30 -20665.435984  18241.699527   1299.570532      0.033194                    
P 31 -19432.076116   1645.265776 -18057.091940    319.721509                    
V 31  15841.134512 -16757.280533 -18108.573133     -0.009919                    
P 32 -18176.467192   7186.197373 -17743.773981   -186.967953                    
V 32 -20792.427198  -9491.874091  18003.154787      0.094604                    
EOF
